[
  {
    "OBJECT_NAME": "STARLINK-3940",
    "OBJECT_ID": "22051H",
    "EPOCH": "2025-11-11T06:01:05.356416",
    "MEAN_MOTION": 15.08844881,
    "ECCENTRICITY": 0.0001276,
    "INCLINATION": 53.2178,
    "RA_OF_ASC_NODE": 300.8516,
    "ARG_OF_PERICENTER": 85.4487,
    "MEAN_ANOMALY": 274.6651,
    "EPHEMERIS_TYPE": 0,
    "CLASSIFICATION_TYPE": "U",
    "NORAD_CAT_ID": 52540,
    "ELEMENT_SET_NO": 999,
    "REV_AT_EPOCH": 19356,
    "BSTAR": 0.00013517000000000002,
    "MEAN_MOTION_DOT": 1.864e-05,
    "MEAN_MOTION_DDOT": 0.0,
    "TLE_LINE1": "1 52540U 22051H   25315.25075644  .00001864  00000+0  13517-3 0  9993",
    "TLE_LINE2": "2 52540  53.2178 300.8516 0001276  85.4487 274.6651 15.08844881193561",
    "COMMENT": "Grouped by shell and plane from TLE"
  },
  {
    "OBJECT_NAME": "STARLINK-3845",
    "OBJECT_ID": "22051J",
    "EPOCH": "2025-11-11T05:10:05.439072",
    "MEAN_MOTION": 15.08840278,
    "ECCENTRICITY": 0.0001522,
    "INCLINATION": 53.2193,
    "RA_OF_ASC_NODE": 305.9729,
    "ARG_OF_PERICENTER": 87.9876,
    "MEAN_ANOMALY": 272.129,
    "EPHEMERIS_TYPE": 0,
    "CLASSIFICATION_TYPE": "U",
    "NORAD_CAT_ID": 52541,
    "ELEMENT_SET_NO": 999,
    "REV_AT_EPOCH": 19348,
    "BSTAR": 2.5974000000000002e-05,
    "MEAN_MOTION_DOT": 1.25e-06,
    "MEAN_MOTION_DDOT": 0.0,
    "TLE_LINE1": "1 52541U 22051J   25315.21534073  .00000125  00000+0  25974-4 0  9996",
    "TLE_LINE2": "2 52541  53.2193 305.9729 0001522  87.9876 272.1290 15.08840278193483",
    "COMMENT": "Grouped by shell and plane from TLE"
  },
  {
    "OBJECT_NAME": "STARLINK-3937",
    "OBJECT_ID": "22051K",
    "EPOCH": "2025-11-11T05:50:28.959072",
    "MEAN_MOTION": 15.08846256,
    "ECCENTRICITY": 0.0001403,
    "INCLINATION": 53.2169,
    "RA_OF_ASC_NODE": 300.8458,
    "ARG_OF_PERICENTER": 87.1144,
    "MEAN_ANOMALY": 273.0009,
    "EPHEMERIS_TYPE": 0,
    "CLASSIFICATION_TYPE": "U",
    "NORAD_CAT_ID": 52542,
    "ELEMENT_SET_NO": 999,
    "REV_AT_EPOCH": 19356,
    "BSTAR": 0.00010283,
    "MEAN_MOTION_DOT": 1.349e-05,
    "MEAN_MOTION_DDOT": 0.0,
    "TLE_LINE1": "1 52542U 22051K   25315.24339073  .00001349  00000+0  10283-3 0  9998",
    "TLE_LINE2": "2 52542  53.2169 300.8458 0001403  87.1144 273.0009 15.08846256193567",
    "COMMENT": "Grouped by shell and plane from TLE"
  },
  {
    "OBJECT_NAME": "STARLINK-3926",
    "OBJECT_ID": "22051L",
    "EPOCH": "2025-11-11T06:06:23.310144",
    "MEAN_MOTION": 15.08841915,
    "ECCENTRICITY": 0.0001432,
    "INCLINATION": 53.2181,
    "RA_OF_ASC_NODE": 300.7973,
    "ARG_OF_PERICENTER": 85.3894,
    "MEAN_ANOMALY": 274.7262,
    "EPHEMERIS_TYPE": 0,
    "CLASSIFICATION_TYPE": "U",
    "NORAD_CAT_ID": 52543,
    "ELEMENT_SET_NO": 999,
    "REV_AT_EPOCH": 19356,
    "BSTAR": 1.5593e-05,
    "MEAN_MOTION_DOT": -4e-07,
    "MEAN_MOTION_DDOT": 0.0,
    "TLE_LINE1": "1 52543U 22051L   25315.25443646 -.00000040  00000+0  15593-4 0  9990",
    "TLE_LINE2": "2 52543  53.2181 300.7973 0001432  85.3894 274.7262 15.08841915193563",
    "COMMENT": "Grouped by shell and plane from TLE"
  },
  {
    "OBJECT_NAME": "STARLINK-3944",
    "OBJECT_ID": "22051M",
    "EPOCH": "2025-11-11T06:34:52.661568",
    "MEAN_MOTION": 15.08841956,
    "ECCENTRICITY": 0.0001426,
    "INCLINATION": 53.2175,
    "RA_OF_ASC_NODE": 305.7211,
    "ARG_OF_PERICENTER": 87.1334,
    "MEAN_ANOMALY": 272.9822,
    "EPHEMERIS_TYPE": 0,
    "CLASSIFICATION_TYPE": "U",
    "NORAD_CAT_ID": 52544,
    "ELEMENT_SET_NO": 999,
    "REV_AT_EPOCH": 19349,
    "BSTAR": 6.385100000000001e-05,
    "MEAN_MOTION_DOT": 7.28e-06,
    "MEAN_MOTION_DDOT": 0.0,
    "TLE_LINE1": "1 52544U 22051M   25315.27422062  .00000728  00000+0  63851-4 0  9994",
    "TLE_LINE2": "2 52544  53.2175 305.7211 0001426  87.1334 272.9822 15.08841956193498",
    "COMMENT": "Grouped by shell and plane from TLE"
  },
  {
    "OBJECT_NAME": "STARLINK-3948",
    "OBJECT_ID": "22051P",
    "EPOCH": "2025-11-11T05:09:26.100288",
    "MEAN_MOTION": 15.08845482,
    "ECCENTRICITY": 0.0001483,
    "INCLINATION": 53.2176,
    "RA_OF_ASC_NODE": 300.7431,
    "ARG_OF_PERICENTER": 90.8615,
    "MEAN_ANOMALY": 269.2547,
    "EPHEMERIS_TYPE": 0,
    "CLASSIFICATION_TYPE": "U",
    "NORAD_CAT_ID": 52546,
    "ELEMENT_SET_NO": 999,
    "REV_AT_EPOCH": 19356,
    "BSTAR": 0.00011937,
    "MEAN_MOTION_DOT": 1.613e-05,
    "MEAN_MOTION_DDOT": 0.0,
    "TLE_LINE1": "1 52546U 22051P   25315.21488542  .00001613  00000+0  11937-3 0  9996",
    "TLE_LINE2": "2 52546  53.2176 300.7431 0001483  90.8615 269.2547 15.08845482193565",
    "COMMENT": "Grouped by shell and plane from TLE"
  },
  {
    "OBJECT_NAME": "STARLINK-3931",
    "OBJECT_ID": "22051R",
    "EPOCH": "2025-11-11T06:54:04.849632",
    "MEAN_MOTION": 15.08844297,
    "ECCENTRICITY": 0.0001314,
    "INCLINATION": 53.2175,
    "RA_OF_ASC_NODE": 300.6478,
    "ARG_OF_PERICENTER": 90.1877,
    "MEAN_ANOMALY": 269.9265,
    "EPHEMERIS_TYPE": 0,
    "CLASSIFICATION_TYPE": "U",
    "NORAD_CAT_ID": 52548,
    "ELEMENT_SET_NO": 999,
    "REV_AT_EPOCH": 19357,
    "BSTAR": 7.6949e-05,
    "MEAN_MOTION_DOT": 9.37e-06,
    "MEAN_MOTION_DDOT": 0.0,
    "TLE_LINE1": "1 52548U 22051R   25315.28755613  .00000937  00000+0  76949-4 0  9994",
    "TLE_LINE2": "2 52548  53.2175 300.6478 0001314  90.1877 269.9265 15.08844297193570",
    "COMMENT": "Grouped by shell and plane from TLE"
  },
  {
    "OBJECT_NAME": "STARLINK-3935",
    "OBJECT_ID": "22051S",
    "EPOCH": "2025-11-11T05:45:11.377728",
    "MEAN_MOTION": 15.08842299,
    "ECCENTRICITY": 0.0001457,
    "INCLINATION": 53.2173,
    "RA_OF_ASC_NODE": 300.8627,
    "ARG_OF_PERICENTER": 83.6438,
    "MEAN_ANOMALY": 276.4721,
    "EPHEMERIS_TYPE": 0,
    "CLASSIFICATION_TYPE": "U",
    "NORAD_CAT_ID": 52549,
    "ELEMENT_SET_NO": 999,
    "REV_AT_EPOCH": 19356,
    "BSTAR": 8.963700000000001e-05,
    "MEAN_MOTION_DOT": 1.139e-05,
    "MEAN_MOTION_DDOT": 0.0,
    "TLE_LINE1": "1 52549U 22051S   25315.23971502  .00001139  00000+0  89637-4 0  9990",
    "TLE_LINE2": "2 52549  53.2173 300.8627 0001457  83.6438 276.4721 15.08842299193564",
    "COMMENT": "Grouped by shell and plane from TLE"
  },
  {
    "OBJECT_NAME": "STARLINK-3965",
    "OBJECT_ID": "22051T",
    "EPOCH": "2025-11-11T05:29:17.893248",
    "MEAN_MOTION": 15.08841799,
    "ECCENTRICITY": 0.0001366,
    "INCLINATION": 53.2172,
    "RA_OF_ASC_NODE": 300.91,
    "ARG_OF_PERICENTER": 95.2876,
    "MEAN_ANOMALY": 264.8272,
    "EPHEMERIS_TYPE": 0,
    "CLASSIFICATION_TYPE": "U",
    "NORAD_CAT_ID": 52550,
    "ELEMENT_SET_NO": 999,
    "REV_AT_EPOCH": 19356,
    "BSTAR": 9.694300000000001e-05,
    "MEAN_MOTION_DOT": 1.255e-05,
    "MEAN_MOTION_DDOT": 0.0,
    "TLE_LINE1": "1 52550U 22051T   25315.22867932  .00001255  00000+0  96943-4 0  9999",
    "TLE_LINE2": "2 52550  53.2172 300.9100 0001366  95.2876 264.8272 15.08841799193562",
    "COMMENT": "Grouped by shell and plane from TLE"
  },
  {
    "OBJECT_NAME": "STARLINK-3969",
    "OBJECT_ID": "22051U",
    "EPOCH": "2025-11-11T05:39:53.427456",
    "MEAN_MOTION": 15.08844017,
    "ECCENTRICITY": 0.00015,
    "INCLINATION": 53.2182,
    "RA_OF_ASC_NODE": 300.8764,
    "ARG_OF_PERICENTER": 89.3698,
    "MEAN_ANOMALY": 270.7466,
    "EPHEMERIS_TYPE": 0,
    "CLASSIFICATION_TYPE": "U",
    "NORAD_CAT_ID": 52551,
    "ELEMENT_SET_NO": 999,
    "REV_AT_EPOCH": 19356,
    "BSTAR": 6.2129e-05,
    "MEAN_MOTION_DOT": 7.01e-06,
    "MEAN_MOTION_DDOT": 0.0,
    "TLE_LINE1": "1 52551U 22051U   25315.23603504  .00000701  00000+0  62129-4 0  9998",
    "TLE_LINE2": "2 52551  53.2182 300.8764 0001500  89.3698 270.7466 15.08844017193562",
    "COMMENT": "Grouped by shell and plane from TLE"
  },
  {
    "OBJECT_NAME": "STARLINK-3966",
    "OBJECT_ID": "22051V",
    "EPOCH": "2025-11-11T05:34:37.334784",
    "MEAN_MOTION": 15.08851876,
    "ECCENTRICITY": 0.0001773,
    "INCLINATION": 53.2159,
    "RA_OF_ASC_NODE": 301.0472,
    "ARG_OF_PERICENTER": 92.1139,
    "MEAN_ANOMALY": 268.0056,
    "EPHEMERIS_TYPE": 0,
    "CLASSIFICATION_TYPE": "U",
    "NORAD_CAT_ID": 52552,
    "ELEMENT_SET_NO": 999,
    "REV_AT_EPOCH": 19356,
    "BSTAR": 9.7759e-05,
    "MEAN_MOTION_DOT": 1.269e-05,
    "MEAN_MOTION_DDOT": 0.0,
    "TLE_LINE1": "1 52552U 22051V   25315.23237656  .00001269  00000+0  97759-4 0  9997",
    "TLE_LINE2": "2 52552  53.2159 301.0472 0001773  92.1139 268.0056 15.08851876193566",
    "COMMENT": "Grouped by shell and plane from TLE"
  },
  {
    "OBJECT_NAME": "STARLINK-3858",
    "OBJECT_ID": "22051W",
    "EPOCH": "2025-11-11T06:22:14.274336",
    "MEAN_MOTION": 15.08847415,
    "ECCENTRICITY": 0.0001581,
    "INCLINATION": 53.2179,
    "RA_OF_ASC_NODE": 300.407,
    "ARG_OF_PERICENTER": 90.0759,
    "MEAN_ANOMALY": 270.0414,
    "EPHEMERIS_TYPE": 0,
    "CLASSIFICATION_TYPE": "U",
    "NORAD_CAT_ID": 52553,
    "ELEMENT_SET_NO": 999,
    "REV_AT_EPOCH": 19357,
    "BSTAR": 0.00017349000000000002,
    "MEAN_MOTION_DOT": 2.475e-05,
    "MEAN_MOTION_DDOT": 0.0,
    "TLE_LINE1": "1 52553U 22051W   25315.26544299  .00002475  00000+0  17349-3 0  9991",
    "TLE_LINE2": "2 52553  53.2179 300.4070 0001581  90.0759 270.0414 15.08847415193574",
    "COMMENT": "Grouped by shell and plane from TLE"
  },
  {
    "OBJECT_NAME": "STARLINK-3770",
    "OBJECT_ID": "22051X",
    "EPOCH": "2025-11-11T06:29:37.243680",
    "MEAN_MOTION": 15.08808171,
    "ECCENTRICITY": 0.0001087,
    "INCLINATION": 53.2175,
    "RA_OF_ASC_NODE": 305.7253,
    "ARG_OF_PERICENTER": 84.9638,
    "MEAN_ANOMALY": 275.1479,
    "EPHEMERIS_TYPE": 0,
    "CLASSIFICATION_TYPE": "U",
    "NORAD_CAT_ID": 52554,
    "ELEMENT_SET_NO": 999,
    "REV_AT_EPOCH": 19349,
    "BSTAR": 0.0,
    "MEAN_MOTION_DOT": -2.61e-05,
    "MEAN_MOTION_DDOT": 0.0,
    "TLE_LINE1": "1 52554U 22051X   25315.27056995 -.00002610  00000+0 -14608-3 0  9992",
    "TLE_LINE2": "2 52554  53.2175 305.7253 0001087  84.9638 275.1479 15.08808171193495",
    "COMMENT": "Grouped by shell and plane from TLE"
  }
]